CTC2_L_00636007-03
1 64635U 24932IT  26037.47799769  .00000000  00000+0  00000-0 0  9999
2 64635  60.0000 180.0000 0000000   0.0000 144.0000  4.14196110    18
CTC2_L_00636007-04
1 64636U 24406UI  26037.47799769  .00000000  00000+0  00000-0 0  9996
2 64636  60.0000 180.0000 0000000   0.0000 180.0000  4.14196110    19
CTC2_L_00636007-05
1 64637U 23619SO  26037.47799769  .00000000  00000+0  00000-0 0  9992
2 64637  60.0000 180.0000 0000000   0.0000 216.0000  4.14196110    10
CTC2_L_00636007-06
1 64638U 25536YC  26037.47799769  .00000000  00000+0  00000-0 0  9993
2 64638  60.0000 180.0000 0000000   0.0000 252.0000  4.14196110    11
CTC2_L_00636007-07
1 64639U 24701HG  26037.47799769  .00000000  00000+0  00000-0 0  9997
2 64639  60.0000 180.0000 0000000   0.0000 288.0000  4.14196110    11
CTC2_L_00636007-08
1 64640U 23209K   26037.47799769  .00000000  00000+0  00000-0 0  9991
2 64640  60.0000 180.0000 0000000   0.0000 324.0000  4.14196110    14
CTC2_L_00636007-09
1 64641U 23433FH  26037.47799769  .00000000  00000+0  00000-0 0  9991
2 64641  60.0000 180.0000 0000000   0.0000   0.0000  4.14196110    16
CTC2_L_00636007-10
1 64642U 26210JY  26037.47799769  .00000000  00000+0  00000-0 0  9998
2 64642  60.0000 180.0000 0000000   0.0000  36.0000  4.14196110    16
CTC2_L_00636008-01
1 64643U 26254ST  26037.47799769  .00000000  00000+0  00000-0 0  9997
2 64643  60.0000 210.0000 0000000   0.0000  84.0000  4.14196110    14
CTC2_L_00636008-02
1 64644U 25939PG  26037.47799769  .00000000  00000+0  00000-0 0  9997
2 64644  60.0000 210.0000 0000000   0.0000 120.0000  4.14196110    16
CTC2_L_00636008-03
1 64645U 25297LO  26037.47799769  .00000000  00000+0  00000-0 0  9995
2 64645  60.0000 210.0000 0000000   0.0000 156.0000  4.14196110    16
CTC2_L_00636008-04
1 64646U 24028IF  26037.47799769  .00000000  00000+0  00000-0 0  9997
2 64646  60.0000 210.0000 0000000   0.0000 192.0000  4.14196110    17
CTC2_L_00636008-05
1 64647U 23724PW  26037.47799769  .00000000  00000+0  00000-0 0  9990
2 64647  60.0000 210.0000 0000000   0.0000 228.0000  4.14196110    18
CTC2_L_00636008-06
1 64648U 26435XS  26037.47799769  .00000000  00000+0  00000-0 0  9993
2 64648  60.0000 210.0000 0000000   0.0000 264.0000  4.14196110    19
CTC2_L_00636008-07
1 64649U 23804PB  26037.47799769  .00000000  00000+0  00000-0 0  9991
2 64649  60.0000 210.0000 0000000   0.0000 300.0000  4.14196110    11
CTC2_L_00636008-08
1 64650U 26301RF  26037.47799769  .00000000  00000+0  00000-0 0  9998
2 64650  60.0000 210.0000 0000000   0.0000 336.0000  4.14196110    12
CTC2_L_00636008-09
1 64651U 23719VT  26037.47799769  .00000000  00000+0  00000-0 0  9999
2 64651  60.0000 210.0000 0000000   0.0000  12.0000  4.14196110    14
CTC2_L_00636008-10
1 64652U 25457GX  26037.47799769  .00000000  00000+0  00000-0 0  9991
2 64652  60.0000 210.0000 0000000   0.0000  48.0000  4.14196110    14
CTC2_L_00636009-01
1 64653U 23927UD  26037.47799769  .00000000  00000+0  00000-0 0  9992
2 64653  60.0000 240.0000 0000000   0.0000  96.0000  4.14196110    11
CTC2_L_00636009-02
1 64654U 24490FF  26037.47799769  .00000000  00000+0  00000-0 0  9999
2 64654  60.0000 240.0000 0000000   0.0000 132.0000  4.14196110    13
CTC2_L_00636009-03
1 64655U 23145JH  26037.47799769  .00000000  00000+0  00000-0 0  9996
2 64655  60.0000 240.0000 0000000   0.0000 168.0000  4.14196110    13
CTC2_L_00636009-04
1 64656U 22438ZK  26037.47799769  .00000000  00000+0  00000-0 0  9991
2 64656  60.0000 240.0000 0000000   0.0000 204.0000  4.14196110    15
CTC2_L_00636009-05
1 64657U 25902MO  26037.47799769  .00000000  00000+0  00000-0 0  9991
2 64657  60.0000 240.0000 0000000   0.0000 240.0000  4.14196110    16
CTC2_L_00636009-06
1 64658U 26549YL  26037.47799769  .00000000  00000+0  00000-0 0  9990
2 64658  60.0000 240.0000 0000000   0.0000 276.0000  4.14196110    16
CTC2_L_00636009-07
1 64659U 26851FY  26037.47799769  .00000000  00000+0  00000-0 0  9997
2 64659  60.0000 240.0000 0000000   0.0000 312.0000  4.14196110    18
CTC2_L_00636009-08
1 64660U 25443IN  26037.47799769  .00000000  00000+0  00000-0 0  9995
2 64660  60.0000 240.0000 0000000   0.0000 348.0000  4.14196110    19
CTC2_L_00636009-09
1 64661U 24149XX  26037.47799769  .00000000  00000+0  00000-0 0  9998
2 64661  60.0000 240.0000 0000000   0.0000  24.0000  4.14196110    11
CTC2_L_00636009-10
1 64662U 24154SX  26037.47799769  .00000000  00000+0  00000-0 0  9995
2 64662  60.0000 240.0000 0000000   0.0000  60.0000  4.14196110    12
CTC2_L_00636010-01
1 64663U 25850DN  26037.47799769  .00000000  00000+0  00000-0 0  9990
2 64663  60.0000 270.0000 0000000   0.0000 108.0000  4.14196110    19
CTC2_L_00636010-02
1 64664U 25715G   26037.47799769  .00000000  00000+0  00000-0 0  9991
2 64664  60.0000 270.0000 0000000   0.0000 144.0000  4.14196110    10
CTC2_L_00636010-03
1 64665U 23954DL  26037.47799769  .00000000  00000+0  00000-0 0  9995
2 64665  60.0000 270.0000 0000000   0.0000 180.0000  4.14196110    11
CTC2_L_00636010-04
1 64666U 23240DM  26037.47799769  .00000000  00000+0  00000-0 0  9994
2 64666  60.0000 270.0000 0000000   0.0000 216.0000  4.14196110    12
CTC2_L_00636010-05
1 64667U 26248CC  26037.47799769  .00000000  00000+0  00000-0 0  9996
2 64667  60.0000 270.0000 0000000   0.0000 252.0000  4.14196110    13
CTC2_L_00636010-06
1 64668U 25272CC  26037.47799769  .00000000  00000+0  00000-0 0  9993
2 64668  60.0000 270.0000 0000000   0.0000 288.0000  4.14196110    13
CTC2_L_00636010-07
1 64669U 22344NG  26037.47799769  .00000000  00000+0  00000-0 0  9991
2 64669  60.0000 270.0000 0000000   0.0000 324.0000  4.14196110    15
CTC2_L_00636010-08
1 64670U 23001UV  26037.47799769  .00000000  00000+0  00000-0 0  9994
2 64670  60.0000 270.0000 0000000   0.0000   0.0000  4.14196110    18
CTC2_L_00636010-09
1 64671U 26107BC  26037.47799769  .00000000  00000+0  00000-0 0  9995
2 64671  60.0000 270.0000 0000000   0.0000  36.0000  4.14196110    18
CTC2_L_00636010-10
1 64672U 22868KR  26037.47799769  .00000000  00000+0  00000-0 0  9996
2 64672  60.0000 270.0000 0000000   0.0000  72.0000  4.14196110    19
CTC2_L_00636011-01
1 64673U 25240OH  26037.47799769  .00000000  00000+0  00000-0 0  9994
2 64673  60.0000 300.0000 0000000   0.0000 120.0000  4.14196110    18
CTC2_L_00636011-02
1 64674U 23121UX  26037.47799769  .00000000  00000+0  00000-0 0  9991
2 64674  60.0000 300.0000 0000000   0.0000 156.0000  4.14196110    18
CTC2_L_00636011-03
1 64675U 23307PP  26037.47799769  .00000000  00000+0  00000-0 0  9998
2 64675  60.0000 300.0000 0000000   0.0000 192.0000  4.14196110    19
CTC2_L_00636011-04
1 64676U 25461TV  26037.47799769  .00000000  00000+0  00000-0 0  9992
2 64676  60.0000 300.0000 0000000   0.0000 228.0000  4.14196110    10
CTC2_L_00636011-05
1 64677U 26068SG  26037.47799769  .00000000  00000+0  00000-0 0  9997
2 64677  60.0000 300.0000 0000000   0.0000 264.0000  4.14196110    11
CTC2_L_00636011-06
1 64678U 23733LL  26037.47799769  .00000000  00000+0  00000-0 0  9994
2 64678  60.0000 300.0000 0000000   0.0000 300.0000  4.14196110    13
CTC2_L_00636011-07
1 64679U 22571NX  26037.47799769  .00000000  00000+0  00000-0 0  9994
2 64679  60.0000 300.0000 0000000   0.0000 336.0000  4.14196110    13
CTC2_L_00636011-08
1 64680U 22554MK  26037.47799769  .00000000  00000+0  00000-0 0  9997
2 64680  60.0000 300.0000 0000000   0.0000  12.0000  4.14196110    16
CTC2_L_00636011-09
1 64681U 26834XZ  26037.47799769  .00000000  00000+0  00000-0 0  9993
2 64681  60.0000 300.0000 0000000   0.0000  48.0000  4.14196110    16
CTC2_L_00636011-10
1 64682U 24625OE  26037.47799769  .00000000  00000+0  00000-0 0  9990
2 64682  60.0000 300.0000 0000000   0.0000  84.0000  4.14196110    17
CTC2_L_00636012-01
1 64683U 24553XL  26037.47799769  .00000000  00000+0  00000-0 0  9991
2 64683  60.0000 330.0000 0000000   0.0000 132.0000  4.14196110    15
CTC2_L_00636012-02
1 64684U 24817GQ  26037.47799769  .00000000  00000+0  00000-0 0  9995
2 64684  60.0000 330.0000 0000000   0.0000 168.0000  4.14196110    15
CTC2_L_00636012-03
1 64685U 22734JY  26037.47799769  .00000000  00000+0  00000-0 0  9992
2 64685  60.0000 330.0000 0000000   0.0000 204.0000  4.14196110    17
CTC2_L_00636012-04
1 64686U 22805UR  26037.47799769  .00000000  00000+0  00000-0 0  9992
2 64686  60.0000 330.0000 0000000   0.0000 240.0000  4.14196110    18
CTC2_L_00636012-05
1 64687U 22261VF  26037.47799769  .00000000  00000+0  00000-0 0  9999
2 64687  60.0000 330.0000 0000000   0.0000 276.0000  4.14196110    18
CTC2_L_00636012-06
1 64688U 26309GX  26037.47799769  .00000000  00000+0  00000-0 0  9997
2 64688  60.0000 330.0000 0000000   0.0000 312.0000  4.14196110    10
CTC2_L_00636012-07
1 64689U 22513CT  26037.47799769  .00000000  00000+0  00000-0 0  9991
2 64689  60.0000 330.0000 0000000   0.0000 348.0000  4.14196110    10
CTC2_L_00636012-08
1 64690U 25860ML  26037.47799769  .00000000  00000+0  00000-0 0  9991
2 64690  60.0000 330.0000 0000000   0.0000  24.0000  4.14196110    13
CTC2_L_00636012-09
1 64691U 23697SO  26037.47799769  .00000000  00000+0  00000-0 0  9998
2 64691  60.0000 330.0000 0000000   0.0000  60.0000  4.14196110    14
CTC2_L_00636012-10
1 64692U 24021BH  26037.47799769  .00000000  00000+0  00000-0 0  9991
2 64692  60.0000 330.0000 0000000   0.0000  96.0000  4.14196110    14
